SPAWAR-CAL-R            
1 43776U 18099U   26067.65115975  .00003570  00000+0  25336-3 0  9990
2 43776  97.4524 111.5817 0019701 348.9052  11.1737 15.05212097396878
STARLINK-4626           
1 53685U 22105AP  26068.65818019 -.00000122  00000+0 -49788-5 0  9994
2 53685  97.6025 310.1773 0002273  61.7447 298.4007 15.01262010193239
